1 43013U 17073A   26154.82037069  .00000062  00000+0  50153-4 0  9997
2 43013  98.7770  94.4020 0000659  35.6230 324.4990 14.19509109442571
